start=new Date('2022-10-31T00:00:00.000Z').valueOf();
sats=[{"OBJECT_TYPE":"PAYLOAD","CLASSIFICATION_TYPE":"U","SEMIMAJOR_AXIS":"6925.279","EPOCH":"2022-10-30T13:37:15.759264","BSTAR":"0.00039799000000","OBJECT_ID":"2021-027Q","DECAY_DATE":null,"REV_AT_EPOCH":"8789","OBJECT_NAME":"STARLINK-2442","SITE":"AFETR","MEAN_MOTION":"15.06422681","ELEMENT_SET_NO":"999","TIME_SYSTEM":"UTC","LAUNCH_DATE":"2021-04-07","APOAPSIS":"548.548","NORAD_CAT_ID":"48106","TLE_LINE1":"1 48106U 21027Q   22303.56754351  .00005655  00000-0  39799-3 0  9998","FILE":"3637924","TLE_LINE2":"2 48106  53.0541 255.9145 0002027  49.2924 310.8241 15.06422681 87897","COUNTRY_CODE":"US","GP_ID":"216527294","RA_OF_ASC_NODE":"255.9145","ECCENTRICITY":"0.00020270","RCS_SIZE":"LARGE","PERIAPSIS":"545.740","MEAN_MOTION_DOT":"0.00005655","MEAN_MOTION_DDOT":"0.0000000000000","REF_FRAME":"TEME","MEAN_ANOMALY":"310.8241","PERIOD":"95.591","INCLINATION":"53.0541","CENTER_NAME":"EARTH","ARG_OF_PERICENTER":"49.2924","EPHEMERIS_TYPE":"0","MEAN_ELEMENT_THEORY":"SGP4"},{"REV_AT_EPOCH":"8789","OBJECT_NAME":"STARLINK-2443","MEAN_MOTION":"15.06409494","SITE":"AFETR","ELEMENT_SET_NO":"999","LAUNCH_DATE":"2021-04-07","TIME_SYSTEM":"UTC","APOAPSIS":"548.699","NORAD_CAT_ID":"48107","CLASSIFICATION_TYPE":"U","OBJECT_TYPE":"PAYLOAD","SEMIMAJOR_AXIS":"6925.319","EPOCH":"2022-10-30T13:58:30.075456","BSTAR":"0.00022822000000","OBJECT_ID":"2021-027R","DECAY_DATE":null,"ECCENTRICITY":"0.00021870","MEAN_MOTION_DDOT":"0.0000000000000","MEAN_MOTION_DOT":"0.00003120","RCS_SIZE":"LARGE","PERIAPSIS":"545.670","REF_FRAME":"TEME","INCLINATION":"53.0548","PERIOD":"95.592","MEAN_ANOMALY":"311.8303","CENTER_NAME":"EARTH","EPHEMERIS_TYPE":"0","ARG_OF_PERICENTER":"48.2873","MEAN_ELEMENT_THEORY":"SGP4","TLE_LINE1":"1 48107U 21027R   22303.58229254  .00003120  00000-0  22822-3 0  9994","FILE":"3637924","GP_ID":"216528044","COUNTRY_CODE":"US","TLE_LINE2":"2 48107  53.0548 255.8374 0002187  48.2873 311.8303 15.06409494 87894","RA_OF_ASC_NODE":"255.8374"},{"CENTER_NAME":"EARTH","MEAN_ANOMALY":"319.4812","PERIOD":"95.592","INCLINATION":"53.0538","MEAN_ELEMENT_THEORY":"SGP4","EPHEMERIS_TYPE":"0","ARG_OF_PERICENTER":"40.6322","PERIAPSIS":"545.880","RCS_SIZE":"LARGE","MEAN_MOTION_DOT":"-0.00001215","MEAN_MOTION_DDOT":"0.0000000000000","ECCENTRICITY":"0.00019450","REF_FRAME":"TEME","RA_OF_ASC_NODE":"265.6537","TLE_LINE1":"1 48108U 21027S   22303.62192376 -.00001215  00000-0 -62700-4 0  9999","COUNTRY_CODE":"US","TLE_LINE2":"2 48108  53.0538 265.6537 0001945  40.6322 319.4812 15.06395544 87754","GP_ID":"216528790","FILE":"3637924","APOAPSIS":"548.574","NORAD_CAT_ID":"48108","OBJECT_NAME":"STARLINK-2444","REV_AT_EPOCH":"8775","TIME_SYSTEM":"UTC","LAUNCH_DATE":"2021-04-07","MEAN_MOTION":"15.06395544","SITE":"AFETR","ELEMENT_SET_NO":"999","BSTAR":"-0.00006270000000","DECAY_DATE":null,"OBJECT_ID":"2021-027S","OBJECT_TYPE":"PAYLOAD","CLASSIFICATION_TYPE":"U","EPOCH":"2022-10-30T14:55:34.212864","SEMIMAJOR_AXIS":"6925.362"},{"CLASSIFICATION_TYPE":"U","OBJECT_TYPE":"PAYLOAD","SEMIMAJOR_AXIS":"6925.356","EPOCH":"2022-10-30T21:37:38.377632","BSTAR":"-0.00000851600000","OBJECT_ID":"2021-027T","DECAY_DATE":null,"REV_AT_EPOCH":"8766","OBJECT_NAME":"STARLINK-2445","ELEMENT_SET_NO":"999","SITE":"AFETR","MEAN_MOTION":"15.06397706","LAUNCH_DATE":"2021-04-07","TIME_SYSTEM":"UTC","APOAPSIS":"549.087","NORAD_CAT_ID":"48109","TLE_LINE1":"1 48109U 21027T   22303.90113863 -.00000409  00000-0 -85160-5 0  9995","FILE":"3637924","GP_ID":"216529034","TLE_LINE2":"2 48109  53.0547 274.4030 0002695  39.0633 321.0551 15.06397706 87662","COUNTRY_CODE":"US","RA_OF_ASC_NODE":"274.4030","ECCENTRICITY":"0.00026950","MEAN_MOTION_DOT":"-0.00000409","MEAN_MOTION_DDOT":"0.0000000000000","PERIAPSIS":"545.354","RCS_SIZE":"LARGE","REF_FRAME":"TEME","PERIOD":"95.592","INCLINATION":"53.0547","MEAN_ANOMALY":"321.0551","CENTER_NAME":"EARTH","ARG_OF_PERICENTER":"39.0633","EPHEMERIS_TYPE":"0","MEAN_ELEMENT_THEORY":"SGP4"},{"OBJECT_ID":"2021-027U","DECAY_DATE":null,"BSTAR":"0.00003939700000","SEMIMAJOR_AXIS":"6925.370","EPOCH":"2022-10-30T21:01:49.069632","OBJECT_TYPE":"PAYLOAD","CLASSIFICATION_TYPE":"U","NORAD_CAT_ID":"48110","APOAPSIS":"548.872","SITE":"AFETR","MEAN_MOTION":"15.06393138","ELEMENT_SET_NO":"999","TIME_SYSTEM":"UTC","LAUNCH_DATE":"2021-04-07","REV_AT_EPOCH":"8780","OBJECT_NAME":"STARLINK-2447","RA_OF_ASC_NODE":"264.5146","FILE":"3637924","COUNTRY_CODE":"US","TLE_LINE2":"2 48110  53.0552 264.5146 0002364  48.5040 311.6152 15.06393138 87801","GP_ID":"216527794","TLE_LINE1":"1 48110U 21027U   22303.87626238  .00000305  00000-0  39397-4 0  9991","ARG_OF_PERICENTER":"48.5040","EPHEMERIS_TYPE":"0","MEAN_ELEMENT_THEORY":"SGP4","PERIOD":"95.593","MEAN_ANOMALY":"311.6152","INCLINATION":"53.0552","CENTER_NAME":"EARTH","REF_FRAME":"TEME","ECCENTRICITY":"0.00023640","RCS_SIZE":"LARGE","PERIAPSIS":"545.597","MEAN_MOTION_DDOT":"0.0000000000000","MEAN_MOTION_DOT":"0.00000305"},{"TLE_LINE1":"1 48111U 21027V   22303.86888791 -.00001071  00000-0 -52995-4 0  9997","FILE":"3637924","TLE_LINE2":"2 48111  53.0546 264.5292 0001710  54.3932 305.7216 15.06390636 87801","COUNTRY_CODE":"US","GP_ID":"216527545","RA_OF_ASC_NODE":"264.5292","ECCENTRICITY":"0.00017100","RCS_SIZE":"LARGE","PERIAPSIS":"546.058","MEAN_MOTION_DDOT":"0.0000000000000","MEAN_MOTION_DOT":"-0.00001071","REF_FRAME":"TEME","MEAN_ANOMALY":"305.7216","PERIOD":"95.593","INCLINATION":"53.0546","CENTER_NAME":"EARTH","ARG_OF_PERICENTER":"54.3932","EPHEMERIS_TYPE":"0","MEAN_ELEMENT_THEORY":"SGP4","OBJECT_TYPE":"PAYLOAD","CLASSIFICATION_TYPE":"U","SEMIMAJOR_AXIS":"6925.377","EPOCH":"2022-10-30T20:51:11.915424","BSTAR":"-0.00005299500000","OBJECT_ID":"2021-027V","DECAY_DATE":null,"REV_AT_EPOCH":"8780","OBJECT_NAME":"STARLINK-2448","SITE":"AFETR","MEAN_MOTION":"15.06390636","ELEMENT_SET_NO":"999","TIME_SYSTEM":"UTC","LAUNCH_DATE":"2021-04-07","APOAPSIS":"548.426","NORAD_CAT_ID":"48111"},{"TLE_LINE1":"1 48112U 21027W   22303.92834251 -.00000021  00000-0  17522-4 0  9997","GP_ID":"216528291","TLE_LINE2":"2 48112  53.0563 279.4444 0002484  43.4782 316.6403 15.06395314 87599","COUNTRY_CODE":"US","FILE":"3637924","RA_OF_ASC_NODE":"279.4444","MEAN_MOTION_DOT":"-0.00000021","MEAN_MOTION_DDOT":"0.0000000000000","RCS_SIZE":"LARGE","PERIAPSIS":"545.508","ECCENTRICITY":"0.00024840","REF_FRAME":"TEME","CENTER_NAME":"EARTH","MEAN_ANOMALY":"316.6403","PERIOD":"95.592","INCLINATION":"53.0563","MEAN_ELEMENT_THEORY":"SGP4","ARG_OF_PERICENTER":"43.4782","EPHEMERIS_TYPE":"0","CLASSIFICATION_TYPE":"U","OBJECT_TYPE":"PAYLOAD","EPOCH":"2022-10-30T22:16:48.792864","SEMIMAJOR_AXIS":"6925.363","BSTAR":"0.00001752200000","DECAY_DATE":null,"OBJECT_ID":"2021-027W","OBJECT_NAME":"STARLINK-2449","REV_AT_EPOCH":"8759","LAUNCH_DATE":"2021-04-07","TIME_SYSTEM":"UTC","SITE":"AFETR","MEAN_MOTION":"15.06395314","ELEMENT_SET_NO":"999","APOAPSIS":"548.948","NORAD_CAT_ID":"48112"},{"REV_AT_EPOCH":"8754","OBJECT_NAME":"STARLINK-2450","SITE":"AFETR","MEAN_MOTION":"15.06406839","ELEMENT_SET_NO":"999","TIME_SYSTEM":"UTC","LAUNCH_DATE":"2021-04-07","APOAPSIS":"548.508","NORAD_CAT_ID":"48113","OBJECT_TYPE":"PAYLOAD","CLASSIFICATION_TYPE":"U","SEMIMAJOR_AXIS":"6925.328","EPOCH":"2022-10-30T04:49:09.127776","BSTAR":"0.00010017000000","OBJECT_ID":"2021-027X","DECAY_DATE":null,"ECCENTRICITY":"0.00019000","RCS_SIZE":"LARGE","PERIAPSIS":"545.877","MEAN_MOTION_DDOT":"0.0000000000000","MEAN_MOTION_DOT":"0.00001211","REF_FRAME":"TEME","INCLINATION":"53.0538","PERIOD":"95.592","MEAN_ANOMALY":"310.2292","CENTER_NAME":"EARTH","ARG_OF_PERICENTER":"49.8863","EPHEMERIS_TYPE":"0","MEAN_ELEMENT_THEORY":"SGP4","TLE_LINE1":"1 48113U 21027X   22303.20080009  .00001211  00000-0  10017-3 0  9995","FILE":"3637867","TLE_LINE2":"2 48113  53.0538 277.5498 0001900  49.8863 310.2292 15.06406839 87548","COUNTRY_CODE":"US","GP_ID":"216501960","RA_OF_ASC_NODE":"277.5498"},{"DECAY_DATE":null,"OBJECT_ID":"2021-027Y","BSTAR":"0.00000961030000","EPOCH":"2022-10-30T15:01:29.930304","SEMIMAJOR_AXIS":"6925.340","OBJECT_TYPE":"PAYLOAD","CLASSIFICATION_TYPE":"U","NORAD_CAT_ID":"48114","APOAPSIS":"548.604","TIME_SYSTEM":"UTC","LAUNCH_DATE":"2021-04-07","SITE":"AFETR","MEAN_MOTION":"15.06402855","ELEMENT_SET_NO":"999","OBJECT_NAME":"STARLINK-2451","REV_AT_EPOCH":"8769","RA_OF_ASC_NODE":"270.6292","COUNTRY_CODE":"US","TLE_LINE2":"2 48114  53.0534 270.6292 0002020  49.7694 310.3472 15.06402855 87697","GP_ID":"216527295","FILE":"3637924","TLE_LINE1":"1 48114U 21027Y   22303.62604086 -.00000139  00000-0  96103-5 0  9990","MEAN_ELEMENT_THEORY":"SGP4","EPHEMERIS_TYPE":"0","ARG_OF_PERICENTER":"49.7694","CENTER_NAME":"EARTH","PERIOD":"95.592","INCLINATION":"53.0534","MEAN_ANOMALY":"310.3472","REF_FRAME":"TEME","PERIAPSIS":"545.806","RCS_SIZE":"LARGE","MEAN_MOTION_DDOT":"0.0000000000000","MEAN_MOTION_DOT":"-0.00000139","ECCENTRICITY":"0.00020200"},{"MEAN_ELEMENT_THEORY":"SGP4","ARG_OF_PERICENTER":"55.7640","EPHEMERIS_TYPE":"0","CENTER_NAME":"EARTH","PERIOD":"95.592","INCLINATION":"53.0552","MEAN_ANOMALY":"304.3531","REF_FRAME":"TEME","MEAN_MOTION_DDOT":"0.0000000000000","MEAN_MOTION_DOT":"0.00000233","PERIAPSIS":"545.886","RCS_SIZE":"LARGE","ECCENTRICITY":"0.00019240","RA_OF_ASC_NODE":"264.6189","GP_ID":"216528045","COUNTRY_CODE":"US","TLE_LINE2":"2 48115  53.0552 264.6189 0001924  55.7640 304.3531 15.06398266 87796","FILE":"3637924","TLE_LINE1":"1 48115U 21027Z   22303.85319079  .00000233  00000-0  34534-4 0  9994","NORAD_CAT_ID":"48115","APOAPSIS":"548.551","LAUNCH_DATE":"2021-04-07","TIME_SYSTEM":"UTC","SITE":"AFETR","MEAN_MOTION":"15.06398266","ELEMENT_SET_NO":"999","OBJECT_NAME":"STARLINK-2452","REV_AT_EPOCH":"8779","DECAY_DATE":null,"OBJECT_ID":"2021-027Z","BSTAR":"0.00003453400000","EPOCH":"2022-10-30T20:28:35.684256","SEMIMAJOR_AXIS":"6925.354","CLASSIFICATION_TYPE":"U","OBJECT_TYPE":"PAYLOAD"}];
